ENVISAT                 
1 27386U 02009A   25330.83541738  .00000182  00000+0  72920-4 0  9993
2 27386  98.3577 281.9813 0001225  81.7603 298.4378 14.38990373244383
IDEFIX & ARIANE 42P R/B 
1 27422U 02021B   25330.85033053  .00000374  00000+0  15881-3 0  9991
2 27422  98.5765 265.7494 0012624 126.6299 233.6047 14.30932664229316
AQUA                    
1 27424U 02022A   25331.01702730  .00001323  00000+0  27514-3 0  9999
2 27424  98.4016 291.6431 0000624  92.2830 342.9831 14.61752079253733
CZ-4B R/B               
1 27432U 02024C   25330.73985428  .00000059  00000+0  53572-4 0  9994
2 27432  98.9021  19.5655 0049400 316.2057 153.5144 14.14522942214689
MIDORI II (ADEOS-II)    
1 27597U 02056A   25330.89336119  .00000357  00000+0  15841-3 0  9992
2 27597  98.7614 283.7686 0000668  17.3950 342.7254 14.29189548195612
H-2A R/B                
1 27601U 02056E   25330.83017625  .00000384  00000+0  14894-3 0  9997
2 27601  98.3045 290.2227 0071452 107.7736 273.0828 14.33657740199370
CZ-4B R/B               
1 28059U 03049C   25330.84643298  .00000485  00000+0  12301-3 0  9993
2 28059  98.6779 316.8112 0048099 184.2245 175.8552 14.54887641171640
CZ-2C R/B               
1 28222U 04012C   25330.71338821  .00037489  00000+0  57548-3 0  9991
2 28222  97.7448  22.0280 0017634 332.4678  27.5638 15.54019364188236
SL-16 R/B               
1 28353U 04021B   25330.85244038  .00000086  00000+0  69738-4 0  9995
2 28353  71.0014  88.3031 0006040 218.3465 141.7229 14.14581915108293
CZ-4B R/B               
1 28415U 04035C   25330.63942636  .00010411  00000+0  38936-3 0  9992
2 28415  97.3627   1.2009 0032874 336.8354  23.1401 15.27002400164175
CZ-2C R/B               
1 28480U 04046B   25330.90140175  .00000239  00000+0  10349-3 0  9999
2 28480  98.1975 247.2650 0140727  98.7603 262.9546 14.26930120 93849
ARIANE 5 R/B            
1 28499U 04049H   25330.41365678  .00001081  00000+0  12639-3 0  9995
2 28499  98.2519 130.1109 0083929 326.5107  33.0815 14.84957875130460
