CCSDS_OMM_VERS = 2.0
CREATION_DATE  = 
ORIGINATOR     = 

OBJECT_NAME    = ENVISAT
OBJECT_ID      = 2002-009A
CENTER_NAME    = EARTH
REF_FRAME      = TEME
TIME_SYSTEM    = UTC
MEAN_ELEMENT_THEORY = SGP/SGP4

EPOCH          = 2025-11-26T20:03:00.061632
MEAN_MOTION    = 14.38990373
ECCENTRICITY   = .00012257
INCLINATION    = 98.3577
RA_OF_ASC_NODE = 281.9813
ARG_OF_PERICENTER = 81.7603
MEAN_ANOMALY   = 298.4378

EPHEMERIS_TYPE = 0
CLASSIFICATION_TYPE = U
NORAD_CAT_ID   = 27386
ELEMENT_SET_NO = 999
REV_AT_EPOCH   = 24438
BSTAR          = .72920405E-4
MEAN_MOTION_DOT = .182E-5
MEAN_MOTION_DDOT = 0

CCSDS_OMM_VERS = 2.0
CREATION_DATE  = 
ORIGINATOR     = 

OBJECT_NAME    = IDEFIX & ARIANE 42P R/B
OBJECT_ID      = 2002-021B
CENTER_NAME    = EARTH
REF_FRAME      = TEME
TIME_SYSTEM    = UTC
MEAN_ELEMENT_THEORY = SGP/SGP4

EPOCH          = 2025-11-26T20:24:28.557792
MEAN_MOTION    = 14.30932664
ECCENTRICITY   = .00126243
INCLINATION    = 98.5765
RA_OF_ASC_NODE = 265.7494
ARG_OF_PERICENTER = 126.6299
MEAN_ANOMALY   = 233.6047

EPHEMERIS_TYPE = 0
CLASSIFICATION_TYPE = U
NORAD_CAT_ID   = 27422
ELEMENT_SET_NO = 999
REV_AT_EPOCH   = 22931
BSTAR          = .15880649E-3
MEAN_MOTION_DOT = .374E-5
MEAN_MOTION_DDOT = 0

CCSDS_OMM_VERS = 2.0
CREATION_DATE  = 
ORIGINATOR     = 

OBJECT_NAME    = AQUA
OBJECT_ID      = 2002-022A
CENTER_NAME    = EARTH
REF_FRAME      = TEME
TIME_SYSTEM    = UTC
MEAN_ELEMENT_THEORY = SGP/SGP4

EPOCH          = 2025-11-27T00:24:31.158720
MEAN_MOTION    = 14.61752079
ECCENTRICITY   = .00006245
INCLINATION    = 98.4016
RA_OF_ASC_NODE = 291.6431
ARG_OF_PERICENTER = 92.2830
MEAN_ANOMALY   = 342.9831

EPHEMERIS_TYPE = 0
CLASSIFICATION_TYPE = U
NORAD_CAT_ID   = 27424
ELEMENT_SET_NO = 999
REV_AT_EPOCH   = 25373
BSTAR          = .27514369E-3
MEAN_MOTION_DOT = .1323E-4
MEAN_MOTION_DDOT = 0

CCSDS_OMM_VERS = 2.0
CREATION_DATE  = 
ORIGINATOR     = 

OBJECT_NAME    = CZ-4B R/B
OBJECT_ID      = 2002-024C
CENTER_NAME    = EARTH
REF_FRAME      = TEME
TIME_SYSTEM    = UTC
MEAN_ELEMENT_THEORY = SGP/SGP4

EPOCH          = 2025-11-26T17:45:23.409792
MEAN_MOTION    = 14.14522942
ECCENTRICITY   = .00494005
INCLINATION    = 98.9021
RA_OF_ASC_NODE = 19.5655
ARG_OF_PERICENTER = 316.2057
MEAN_ANOMALY   = 153.5144

EPHEMERIS_TYPE = 0
CLASSIFICATION_TYPE = U
NORAD_CAT_ID   = 27432
ELEMENT_SET_NO = 999
REV_AT_EPOCH   = 21468
BSTAR          = .53571854E-4
MEAN_MOTION_DOT = .59E-6
MEAN_MOTION_DDOT = 0

CCSDS_OMM_VERS = 2.0
CREATION_DATE  = 
ORIGINATOR     = 

OBJECT_NAME    = MIDORI II (ADEOS-II)
OBJECT_ID      = 2002-056A
CENTER_NAME    = EARTH
REF_FRAME      = TEME
TIME_SYSTEM    = UTC
MEAN_ELEMENT_THEORY = SGP/SGP4

EPOCH          = 2025-11-26T21:26:26.406816
MEAN_MOTION    = 14.29189548
ECCENTRICITY   = .00006684
INCLINATION    = 98.7614
RA_OF_ASC_NODE = 283.7686
ARG_OF_PERICENTER = 17.3950
MEAN_ANOMALY   = 342.7254

EPHEMERIS_TYPE = 0
CLASSIFICATION_TYPE = U
NORAD_CAT_ID   = 27597
ELEMENT_SET_NO = 999
REV_AT_EPOCH   = 19561
BSTAR          = .15840923E-3
MEAN_MOTION_DOT = .357E-5
MEAN_MOTION_DDOT = 0

CCSDS_OMM_VERS = 2.0
CREATION_DATE  = 
ORIGINATOR     = 

OBJECT_NAME    = H-2A R/B
OBJECT_ID      = 2002-056E
CENTER_NAME    = EARTH
REF_FRAME      = TEME
TIME_SYSTEM    = UTC
MEAN_ELEMENT_THEORY = SGP/SGP4

EPOCH          = 2025-11-26T19:55:27.228000
MEAN_MOTION    = 14.33657740
ECCENTRICITY   = .00714521
INCLINATION    = 98.3045
RA_OF_ASC_NODE = 290.2227
ARG_OF_PERICENTER = 107.7736
MEAN_ANOMALY   = 273.0828

EPHEMERIS_TYPE = 0
CLASSIFICATION_TYPE = U
NORAD_CAT_ID   = 27601
ELEMENT_SET_NO = 999
REV_AT_EPOCH   = 19937
BSTAR          = .14894459E-3
MEAN_MOTION_DOT = .384E-5
MEAN_MOTION_DDOT = 0

CCSDS_OMM_VERS = 2.0
CREATION_DATE  = 
ORIGINATOR     = 

OBJECT_NAME    = CZ-4B R/B
OBJECT_ID      = 2003-049C
CENTER_NAME    = EARTH
REF_FRAME      = TEME
TIME_SYSTEM    = UTC
MEAN_ELEMENT_THEORY = SGP/SGP4

EPOCH          = 2025-11-26T20:18:51.809472
MEAN_MOTION    = 14.54887641
ECCENTRICITY   = .0048099
INCLINATION    = 98.6779
RA_OF_ASC_NODE = 316.8112
ARG_OF_PERICENTER = 184.2245
MEAN_ANOMALY   = 175.8552

EPHEMERIS_TYPE = 0
CLASSIFICATION_TYPE = U
NORAD_CAT_ID   = 28059
ELEMENT_SET_NO = 999
REV_AT_EPOCH   = 17164
BSTAR          = .12300713E-3
MEAN_MOTION_DOT = .485E-5
MEAN_MOTION_DDOT = 0

CCSDS_OMM_VERS = 2.0
CREATION_DATE  = 
ORIGINATOR     = 

OBJECT_NAME    = CZ-2C R/B
OBJECT_ID      = 2004-012C
CENTER_NAME    = EARTH
REF_FRAME      = TEME
TIME_SYSTEM    = UTC
MEAN_ELEMENT_THEORY = SGP/SGP4

EPOCH          = 2025-11-26T17:07:16.741344
MEAN_MOTION    = 15.54019364
ECCENTRICITY   = .00176349
INCLINATION    = 97.7448
RA_OF_ASC_NODE = 22.0280
ARG_OF_PERICENTER = 332.4678
MEAN_ANOMALY   = 27.5638

EPHEMERIS_TYPE = 0
CLASSIFICATION_TYPE = U
NORAD_CAT_ID   = 28222
ELEMENT_SET_NO = 999
REV_AT_EPOCH   = 18823
BSTAR          = .57547634E-3
MEAN_MOTION_DOT = .37489E-3
MEAN_MOTION_DDOT = 0

CCSDS_OMM_VERS = 2.0
CREATION_DATE  = 
ORIGINATOR     = 

OBJECT_NAME    = SL-16 R/B
OBJECT_ID      = 2004-021B
CENTER_NAME    = EARTH
REF_FRAME      = TEME
TIME_SYSTEM    = UTC
MEAN_ELEMENT_THEORY = SGP/SGP4

EPOCH          = 2025-11-26T20:27:30.848832
MEAN_MOTION    = 14.14581915
ECCENTRICITY   = .00060403
INCLINATION    = 71.0014
RA_OF_ASC_NODE = 88.3031
ARG_OF_PERICENTER = 218.3465
MEAN_ANOMALY   = 141.7229

EPHEMERIS_TYPE = 0
CLASSIFICATION_TYPE = U
NORAD_CAT_ID   = 28353
ELEMENT_SET_NO = 999
REV_AT_EPOCH   = 10829
BSTAR          = .69738223E-4
MEAN_MOTION_DOT = .86E-6
MEAN_MOTION_DDOT = 0

CCSDS_OMM_VERS = 2.0
CREATION_DATE  = 
ORIGINATOR     = 

OBJECT_NAME    = CZ-4B R/B
OBJECT_ID      = 2004-035C
CENTER_NAME    = EARTH
REF_FRAME      = TEME
TIME_SYSTEM    = UTC
MEAN_ELEMENT_THEORY = SGP/SGP4

EPOCH          = 2025-11-26T15:20:46.437504
MEAN_MOTION    = 15.27002400
ECCENTRICITY   = .00328745
INCLINATION    = 97.3627
RA_OF_ASC_NODE = 1.2009
ARG_OF_PERICENTER = 336.8354
MEAN_ANOMALY   = 23.1401

EPHEMERIS_TYPE = 0
CLASSIFICATION_TYPE = U
NORAD_CAT_ID   = 28415
ELEMENT_SET_NO = 999
REV_AT_EPOCH   = 16417
BSTAR          = .38935907E-3
MEAN_MOTION_DOT = .10411E-3
MEAN_MOTION_DDOT = 0

CCSDS_OMM_VERS = 2.0
CREATION_DATE  = 
ORIGINATOR     = 

OBJECT_NAME    = CZ-2C R/B
OBJECT_ID      = 2004-046B
CENTER_NAME    = EARTH
REF_FRAME      = TEME
TIME_SYSTEM    = UTC
MEAN_ELEMENT_THEORY = SGP/SGP4

EPOCH          = 2025-11-26T21:38:01.111200
MEAN_MOTION    = 14.26930120
ECCENTRICITY   = .01407274
INCLINATION    = 98.1975
RA_OF_ASC_NODE = 247.2650
ARG_OF_PERICENTER = 98.7603
MEAN_ANOMALY   = 262.9546

EPHEMERIS_TYPE = 0
CLASSIFICATION_TYPE = U
NORAD_CAT_ID   = 28480
ELEMENT_SET_NO = 999
REV_AT_EPOCH   = 9384
BSTAR          = .10348691E-3
MEAN_MOTION_DOT = .239E-5
MEAN_MOTION_DDOT = 0

CCSDS_OMM_VERS = 2.0
CREATION_DATE  = 
ORIGINATOR     = 

OBJECT_NAME    = ARIANE 5 R/B
OBJECT_ID      = 2004-049H
CENTER_NAME    = EARTH
REF_FRAME      = TEME
TIME_SYSTEM    = UTC
MEAN_ELEMENT_THEORY = SGP/SGP4

EPOCH          = 2025-11-26T09:55:39.945792
MEAN_MOTION    = 14.84957875
ECCENTRICITY   = .00839297
INCLINATION    = 98.2519
RA_OF_ASC_NODE = 130.1109
ARG_OF_PERICENTER = 326.5107
MEAN_ANOMALY   = 33.0815

EPHEMERIS_TYPE = 0
CLASSIFICATION_TYPE = U
NORAD_CAT_ID   = 28499
ELEMENT_SET_NO = 999
REV_AT_EPOCH   = 13046
BSTAR          = .126393E-3
MEAN_MOTION_DOT = .1081E-4
MEAN_MOTION_DDOT = 0

